STARLINK-36570          
1 67640U 26020Z   26046.58335648  .00037600  00000+0  23339-3 0  9991
2 67640  42.9982 276.2942 0001899 262.5442 315.6045 15.76314411  3834
STARLINK-36514          
1 67641U 26020AA  26046.53118729  .00533687  00000+0  23517-2 0  9999
2 67641  42.9968 276.4156 0003030 235.5540 124.5046 15.82309708  2596
STARLINK-36556          
1 67642U 26020AB  26045.89986705  .00445320  00000+0  20883-2 0  9994
2 67642  42.9973 280.2837 0000965 131.0329 229.0626 15.81195695  2492
STARLINK-36533          
1 67643U 26020AC  26046.54716904  .00427425  00000+0  24748-2 0  9990
2 67643  42.9974 276.5448 0002076 255.6619 104.4020 15.76574756  2598
STARLINK-36623          
1 67644U 26020AD  26046.58335648  .00035659  00000+0  22129-3 0  9993
2 67644  42.9980 276.2298 0001812 250.4654 352.5051 15.76340567  3834
STARLINK-36619          
1 67645U 26020AE  26046.58335648 -.00015176  00000+0 -90451-4 0  9992
2 67645  42.9983 276.1990 0001722 264.1999 351.2729 15.76344372  3836
ALSAT-3B                
1 67646U 26021A   26046.51503056  .00008121  00000+0  34147-3 0  9996
2 67646  97.4718 120.9475 0012046 207.5188 152.5412 15.23607411  2348
CZ-2C R/B               
1 67647U 26021B   26046.51804818  .00015625  00000+0  47113-3 0  9991
2 67647  97.6558 121.5404 0153632  88.2902 273.5924 15.23478537  2322
STARLINK-36719          
1 67648U 26022A   26046.58335648 -.00053907  00000+0 -36234-3 0  9999
2 67648  97.2841  79.4581 0001347  88.0788  72.3054 15.75220629  3342
STARLINK-36342          
1 67649U 26022B   26046.58335648 -.00043221  00000+0 -29011-3 0  9993
2 67649  97.2839  79.4593 0001121 100.2979  64.0950 15.75210770  3341
STARLINK-36703          
1 67650U 26022C   26046.58335648 -.00120853  00000+0 -81847-3 0  9997
2 67650  97.2838  79.4619 0001532  92.1049  78.2669 15.75257075  3347
STARLINK-36696          
1 67651U 26022D   26046.58335648 -.01252616  00000+0 -91046-2 0  9993
2 67651  97.2834  79.4658 0001865  81.8029  97.9898 15.76185308  3341
